{
  "type": "FeatureCollection",
  "features": [
    {
      "type": "Feature",
      "properties": {
        "norad_id": 30596,
        "name": "FENGYUN 1C DEB",
        "group": "fengyun-1c-debris",
        "lat": -30.456998781928746,
        "lon": -3.004241095486206,
        "alt_km": 700.2908210025789,
        "timestamp": "2025-12-20T11:30:28.654483+00:00",
        "meta_object_name": "FENGYUN 1C DEB",
        "meta_object_id": "1999-025AMB",
        "meta_epoch": "2025-12-19T19:30:04.154976",
        "meta_mean_motion": 14.34378427,
        "meta_eccentricity": 0.0247194,
        "meta_inclination": 98.4125,
        "meta_ra_of_asc_node": 351.3536,
        "meta_arg_of_pericenter": 267.9122,
        "meta_mean_anomaly": 216.8726,
        "meta_ephemeris_type": 0,
        "meta_classification_type": "U",
        "meta_norad_cat_id": 30596,
        "meta_element_set_no": 999,
        "meta_rev_at_epoch": 98662,
        "meta_bstar": 0.00021548763,
        "meta_mean_motion_dot": 8e-06,
        "meta_mean_motion_ddot": 0,
        "tle_line1": "1 30596U 99025AMB 25353.81254809  .00000800  00000+0  21549-3 0  9994",
        "tle_line2": "2 30596  98.4125 351.3536 0247194 267.9122 216.8726 14.34378427986622"
      },
      "geometry": {
        "type": "Point",
        "coordinates": [
          -3.004241095486206,
          -30.456998781928746
        ]
      }
    },
    {
      "type": "Feature",
      "properties": {
        "norad_id": 30597,
        "name": "FENGYUN 1C DEB",
        "group": "fengyun-1c-debris",
        "lat": 28.38234664319607,
        "lon": -72.8929972618461,
        "alt_km": 597.4345931243633,
        "timestamp": "2025-12-20T11:30:28.654493+00:00",
        "meta_object_name": "FENGYUN 1C DEB",
        "meta_object_id": "1999-025AMC",
        "meta_epoch": "2025-12-17T19:02:22.144704",
        "meta_mean_motion": 14.92890617,
        "meta_eccentricity": 0.00460861,
        "meta_inclination": 98.9433,
        "meta_ra_of_asc_node": 288.9378,
        "meta_arg_of_pericenter": 146.589,
        "meta_mean_anomaly": 213.8249,
        "meta_ephemeris_type": 0,
        "meta_classification_type": "U",
        "meta_norad_cat_id": 30597,
        "meta_element_set_no": 999,
        "meta_rev_at_epoch": 98612,
        "meta_bstar": 0.0033758999,
        "meta_mean_motion_dot": 0.00035818,
        "meta_mean_motion_ddot": 0,
        "tle_line1": "1 30597U 99025AMC 25351.79331186  .00035818  00000+0  33759-2 0  9996",
        "tle_line2": "2 30597  98.9433 288.9378 0046086 146.5890 213.8249 14.92890617986126"
      },
      "geometry": {
        "type": "Point",
        "coordinates": [
          -72.8929972618461,
          28.38234664319607
        ]
      }
    },
    {
      "type": "Feature",
      "properties": {
        "norad_id": 30599,
        "name": "FENGYUN 1C DEB",
        "group": "fengyun-1c-debris",
        "lat": -57.08191660116227,
        "lon": 172.3751054903218,
        "alt_km": 805.233394459493,
        "timestamp": "2025-12-20T11:30:28.654503+00:00",
        "meta_object_name": "FENGYUN 1C DEB",
        "meta_object_id": "1999-025AME",
        "meta_epoch": "2025-12-20T00:12:57.448800",
        "meta_mean_motion": 14.19723945,
        "meta_eccentricity": 0.0301909,
        "meta_inclination": 98.602,
        "meta_ra_of_asc_node": 5.4391,
        "meta_arg_of_pericenter": 323.6948,
        "meta_mean_anomaly": 34.4074,
        "meta_ephemeris_type": 0,
        "meta_classification_type": "U",
        "meta_norad_cat_id": 30599,
        "meta_element_set_no": 999,
        "meta_rev_at_epoch": 97270,
        "meta_bstar": 0.000505,
        "meta_mean_motion_dot": 1.635e-05,
        "meta_mean_motion_ddot": 0,
        "tle_line1": "1 30599U 99025AME 25354.00899825  .00001635  00000+0  50500-3 0  9998",
        "tle_line2": "2 30599  98.6020   5.4391 0301909 323.6948  34.4074 14.19723945972704"
      },
      "geometry": {
        "type": "Point",
        "coordinates": [
          172.3751054903218,
          -57.08191660116227
        ]
      }
    },
    {
      "type": "Feature",
      "properties": {
        "norad_id": 30600,
        "name": "FENGYUN 1C DEB",
        "group": "fengyun-1c-debris",
        "lat": 9.316121642237812,
        "lon": -62.69356902425305,
        "alt_km": 1058.9070844693688,
        "timestamp": "2025-12-20T11:30:28.654513+00:00",
        "meta_object_name": "FENGYUN 1C DEB",
        "meta_object_id": "1999-025AMF",
        "meta_epoch": "2025-12-18T03:09:43.662240",
        "meta_mean_motion": 14.07587233,
        "meta_eccentricity": 0.03271299,
        "meta_inclination": 98.3881,
        "meta_ra_of_asc_node": 296.5082,
        "meta_arg_of_pericenter": 231.9339,
        "meta_mean_anomaly": 125.1904,
        "meta_ephemeris_type": 0,
        "meta_classification_type": "U",
        "meta_norad_cat_id": 30600,
        "meta_element_set_no": 999,
        "meta_rev_at_epoch": 94508,
        "meta_bstar": 0.0022757816,
        "meta_mean_motion_dot": 6.229e-05,
        "meta_mean_motion_ddot": 0,
        "tle_line1": "1 30600U 99025AMF 25352.13175535  .00006229  00000+0  22758-2 0  9995",
        "tle_line2": "2 30600  98.3881 296.5082 0327129 231.9339 125.1904 14.07587233945082"
      },
      "geometry": {
        "type": "Point",
        "coordinates": [
          -62.69356902425305,
          9.316121642237812
        ]
      }
    },
    {
      "type": "Feature",
      "properties": {
        "norad_id": 30602,
        "name": "FENGYUN 1C DEB",
        "group": "fengyun-1c-debris",
        "lat": -22.909048384441217,
        "lon": 85.62842625993271,
        "alt_km": 598.7205191457051,
        "timestamp": "2025-12-20T11:30:28.654523+00:00",
        "meta_object_name": "FENGYUN 1C DEB",
        "meta_object_id": "1999-025AMH",
        "meta_epoch": "2025-12-19T23:56:01.078080",
        "meta_mean_motion": 14.92200053,
        "meta_eccentricity": 0.0012862,
        "meta_inclination": 99.033,
        "meta_ra_of_asc_node": 268.9309,
        "meta_arg_of_pericenter": 99.443,
        "meta_mean_anomaly": 34.3375,
        "meta_ephemeris_type": 0,
        "meta_classification_type": "U",
        "meta_norad_cat_id": 30602,
        "meta_element_set_no": 999,
        "meta_rev_at_epoch": 97913,
        "meta_bstar": 0.0044079,
        "meta_mean_motion_dot": 0.00045184,
        "meta_mean_motion_ddot": 0,
        "tle_line1": "1 30602U 99025AMH 25353.99723470  .00045184  00000+0  44079-2 0  9992",
        "tle_line2": "2 30602  99.0330 268.9309 0012862  99.4430  34.3375 14.92200053979132"
      },
      "geometry": {
        "type": "Point",
        "coordinates": [
          85.62842625993271,
          -22.909048384441217
        ]
      }
    },
    {
      "type": "Feature",
      "properties": {
        "norad_id": 30603,
        "name": "FENGYUN 1C DEB",
        "group": "fengyun-1c-debris",
        "lat": 25.791645054909363,
        "lon": 12.491028681234713,
        "alt_km": 1072.6387866141313,
        "timestamp": "2025-12-20T11:30:28.654533+00:00",
        "meta_object_name": "FENGYUN 1C DEB",
        "meta_object_id": "1999-025AMJ",
        "meta_epoch": "2025-12-20T01:15:06.596352",
        "meta_mean_motion": 13.8414322,
        "meta_eccentricity": 0.0183449,
        "meta_inclination": 98.4086,
        "meta_ra_of_asc_node": 16.207,
        "meta_arg_of_pericenter": 185.4272,
        "meta_mean_anomaly": 233.3371,
        "meta_ephemeris_type": 0,
        "meta_classification_type": "U",
        "meta_norad_cat_id": 30603,
        "meta_element_set_no": 999,
        "meta_rev_at_epoch": 94977,
        "meta_bstar": 0.0010049,
        "meta_mean_motion_dot": 1.238e-05,
        "meta_mean_motion_ddot": 0,
        "tle_line1": "1 30603U 99025AMJ 25354.05215968  .00001238  00000+0  10049-2 0  9991",
        "tle_line2": "2 30603  98.4086  16.2070 0183449 185.4272 233.3371 13.84143220949779"
      },
      "geometry": {
        "type": "Point",
        "coordinates": [
          12.491028681234713,
          25.791645054909363
        ]
      }
    },
    {
      "type": "Feature",
      "properties": {
        "norad_id": 30604,
        "name": "FENGYUN 1C DEB",
        "group": "fengyun-1c-debris",
        "lat": 71.69726435146603,
        "lon": 2.4373141778790006,
        "alt_km": 801.7645615311158,
        "timestamp": "2025-12-20T11:30:28.654543+00:00",
        "meta_object_name": "FENGYUN 1C DEB",
        "meta_object_id": "1999-025AMK",
        "meta_epoch": "2025-12-19T01:34:07.173120",
        "meta_mean_motion": 14.23620654,
        "meta_eccentricity": 0.02092952,
        "meta_inclination": 98.4019,
        "meta_ra_of_asc_node": 27.6253,
        "meta_arg_of_pericenter": 348.3373,
        "meta_mean_anomaly": 39.6079,
        "meta_ephemeris_type": 0,
        "meta_classification_type": "U",
        "meta_norad_cat_id": 30604,
        "meta_element_set_no": 999,
        "meta_rev_at_epoch": 97929,
        "meta_bstar": 0.00023851442,
        "meta_mean_motion_dot": 6.35e-06,
        "meta_mean_motion_ddot": 0,
        "tle_line1": "1 30604U 99025AMK 25353.06536080  .00000635  00000+0  23851-3 0  9999",
        "tle_line2": "2 30604  98.4019  27.6253 0209295 348.3373  39.6079 14.23620654979292"
      },
      "geometry": {
        "type": "Point",
        "coordinates": [
          2.4373141778790006,
          71.69726435146603
        ]
      }
    }
  ]
}